[{"OBJECT_NAME":"LKW-4","OBJECT_ID":"2018-025A","EPOCH":"2026-03-09T22:35:59.889696","MEAN_MOTION":15.54576681,"ECCENTRICITY":0.00029172,"INCLINATION":97.6271,"RA_OF_ASC_NODE":232.6737,"ARG_OF_PERICENTER":300.1115,"MEAN_ANOMALY":59.9849,"EPHEMERIS_TYPE":0,"CLASSIFICATION_TYPE":"U","NORAD_CAT_ID":43236,"ELEMENT_SET_NO":999,"REV_AT_EPOCH":44457,"BSTAR":0.00064120349,"MEAN_MOTION_DOT":0.00042392,"MEAN_MOTION_DDOT":0},{"OBJECT_NAME":"STARLINK-1724","OBJECT_ID":"2020-062BC","EPOCH":"2026-03-09T21:09:06.323616","MEAN_MOTION":15.52994502,"ECCENTRICITY":6.461e-5,"INCLINATION":53.03,"RA_OF_ASC_NODE":286.312,"ARG_OF_PERICENTER":290.0193,"MEAN_ANOMALY":70.0747,"EPHEMERIS_TYPE":0,"CLASSIFICATION_TYPE":"U","NORAD_CAT_ID":46375,"ELEMENT_SET_NO":999,"REV_AT_EPOCH":30559,"BSTAR":0.0019221523,"MEAN_MOTION_DOT":0.00123399,"MEAN_MOTION_DDOT":0}]
